{"fetched_at":"2026-03-29T16:36:15Z","count":15609,"tles":[{"name":"STARLINK-33598","line1":"1 62771U 25015P   26087.69173570  .00016756  00000+0  57638-3 0  9993","line2":"2 62771  53.1574 233.9603 0000963  64.1782 295.9318 15.30210481 67399","category":"Starlink"}]}